[{"OBJECT_NAME":"TDRS 3","OBJECT_ID":"1988-091B","EPOCH":"2026-04-26T11:37:21.199296","MEAN_MOTION":1.00275045,"ECCENTRICITY":0.0040984,"INCLINATION":12.6414,"RA_OF_ASC_NODE":341.3476,"ARG_OF_PERICENTER":356.1007,"MEAN_ANOMALY":2.53,"EPHEMERIS_TYPE":0,"CLASSIFICATION_TYPE":"U","NORAD_CAT_ID":19548,"ELEMENT_SET_NO":999,"REV_AT_EPOCH":12486,"BSTAR":0,"MEAN_MOTION_DOT":-3.12e-6,"MEAN_MOTION_DDOT":0},{"OBJECT_NAME":"HST","OBJECT_ID":"1990-037B","EPOCH":"2026-04-26T13:31:34.984704","MEAN_MOTION":15.30160031,"ECCENTRICITY":0.0001646,"INCLINATION":28.4745,"RA_OF_ASC_NODE":73.2359,"ARG_OF_PERICENTER":293.0717,"MEAN_ANOMALY":66.9705,"EPHEMERIS_TYPE":0,"CLASSIFICATION_TYPE":"U","NORAD_CAT_ID":20580,"ELEMENT_SET_NO":999,"REV_AT_EPOCH":78065,"BSTAR":0.00025327,"MEAN_MOTION_DOT":7.841e-5,"MEAN_MOTION_DDOT":0},{"OBJECT_NAME":"TDRS 5","OBJECT_ID":"1991-054B","EPOCH":"2026-04-26T19:37:00.171840","MEAN_MOTION":1.00271012,"ECCENTRICITY":0.0007927,"INCLINATION":14.0783,"RA_OF_ASC_NODE":354.1634,"ARG_OF_PERICENTER":285.4071,"MEAN_ANOMALY":61.7814,"EPHEMERIS_TYPE":0,"CLASSIFICATION_TYPE":"U","NORAD_CAT_ID":21639,"ELEMENT_SET_NO":999,"REV_AT_EPOCH":12719,"BSTAR":0,"MEAN_MOTION_DOT":7.2e-7,"MEAN_MOTION_DDOT":0},{"OBJECT_NAME":"TDRS 6","OBJECT_ID":"1993-003B","EPOCH":"2026-04-26T02:26:53.835936","MEAN_MOTION":1.00273792,"ECCENTRICITY":0.00059545,"INCLINATION":14.1825,"RA_OF_ASC_NODE":357.4471,"ARG_OF_PERICENTER":179.2648,"MEAN_ANOMALY":28.3635,"EPHEMERIS_TYPE":0,"CLASSIFICATION_TYPE":"U","NORAD_CAT_ID":22314,"ELEMENT_SET_NO":999,"REV_AT_EPOCH":12188,"BSTAR":0,"MEAN_MOTION_DOT":-3.07e-6,"MEAN_MOTION_DDOT":0},{"OBJECT_NAME":"TDRS 7","OBJECT_ID":"1995-035B","EPOCH":"2026-04-26T20:52:51.384288","MEAN_MOTION":1.00278079,"ECCENTRICITY":0.0010905,"INCLINATION":13.399,"RA_OF_ASC_NODE":348.544,"ARG_OF_PERICENTER":64.8581,"MEAN_ANOMALY":203.7577,"EPHEMERIS_TYPE":0,"CLASSIFICATION_TYPE":"U","NORAD_CAT_ID":23613,"ELEMENT_SET_NO":999,"REV_AT_EPOCH":11273,"BSTAR":0,"MEAN_MOTION_DOT":-2.52e-6,"MEAN_MOTION_DDOT":0},{"OBJECT_NAME":"ISS (ZARYA)","OBJECT_ID":"1998-067A","EPOCH":"2026-04-26T15:38:18.521664","MEAN_MOTION":15.48972814,"ECCENTRICITY":0.0007009,"INCLINATION":51.632,"RA_OF_ASC_NODE":195.1803,"ARG_OF_PERICENTER":353.7259,"MEAN_ANOMALY":6.364,"EPHEMERIS_TYPE":0,"CLASSIFICATION_TYPE":"U","NORAD_CAT_ID":25544,"ELEMENT_SET_NO":999,"REV_AT_EPOCH":56376,"BSTAR":0.00017009,"MEAN_MOTION_DOT":8.927e-5,"MEAN_MOTION_DDOT":0},{"OBJECT_NAME":"TERRA","OBJECT_ID":"1999-068A","EPOCH":"2026-04-26T21:10:49.384128","MEAN_MOTION":14.61060954,"ECCENTRICITY":0.0003157,"INCLINATION":97.9501,"RA_OF_ASC_NODE":168.4524,"ARG_OF_PERICENTER":54.7148,"MEAN_ANOMALY":122.519,"EPHEMERIS_TYPE":0,"CLASSIFICATION_TYPE":"U","NORAD_CAT_ID":25994,"ELEMENT_SET_NO":999,"REV_AT_EPOCH":40211,"BSTAR":8.6257e-5,"MEAN_MOTION_DOT":3.79e-6,"MEAN_MOTION_DDOT":0},{"OBJECT_NAME":"TDRS 8","OBJECT_ID":"2000-034A","EPOCH":"2026-04-26T19:06:10.626912","MEAN_MOTION":1.00277,"ECCENTRICITY":0.0006207,"INCLINATION":12.6046,"RA_OF_ASC_NODE":31.7532,"ARG_OF_PERICENTER":345.5403,"MEAN_ANOMALY":208.714,"EPHEMERIS_TYPE":0,"CLASSIFICATION_TYPE":"U","NORAD_CAT_ID":26388,"ELEMENT_SET_NO":999,"REV_AT_EPOCH":9466,"BSTAR":0,"MEAN_MOTION_DOT":-2.02e-6,"MEAN_MOTION_DDOT":0},{"OBJECT_NAME":"TIMED","OBJECT_ID":"2001-055B","EPOCH":"2026-04-26T21:22:25.876128","MEAN_MOTION":14.95169477,"ECCENTRICITY":0.0001735,"INCLINATION":74.0684,"RA_OF_ASC_NODE":338.2975,"ARG_OF_PERICENTER":210.5099,"MEAN_ANOMALY":149.5985,"EPHEMERIS_TYPE":0,"CLASSIFICATION_TYPE":"U","NORAD_CAT_ID":26998,"ELEMENT_SET_NO":999,"REV_AT_EPOCH":32315,"BSTAR":0.00010156,"MEAN_MOTION_DOT":1.076e-5,"MEAN_MOTION_DDOT":0},{"OBJECT_NAME":"AQUA","OBJECT_ID":"2002-022A","EPOCH":"2026-04-26T20:37:26.315904","MEAN_MOTION":14.6207591,"ECCENTRICITY":0.0002042,"INCLINATION":98.4244,"RA_OF_ASC_NODE":85.131,"ARG_OF_PERICENTER":95.0121,"MEAN_ANOMALY":295.2207,"EPHEMERIS_TYPE":0,"CLASSIFICATION_TYPE":"U","NORAD_CAT_ID":27424,"ELEMENT_SET_NO":999,"REV_AT_EPOCH":27577,"BSTAR":0.00019419,"MEAN_MOTION_DOT":9.26e-6,"MEAN_MOTION_DDOT":0},{"OBJECT_NAME":"SORCE","OBJECT_ID":"2003-004A","EPOCH":"2026-04-26T15:55:53.413824","MEAN_MOTION":15.03425891,"ECCENTRICITY":0.0016409,"INCLINATION":39.99,"RA_OF_ASC_NODE":195.5724,"ARG_OF_PERICENTER":38.8548,"MEAN_ANOMALY":321.3423,"EPHEMERIS_TYPE":0,"CLASSIFICATION_TYPE":"U","NORAD_CAT_ID":27651,"ELEMENT_SET_NO":999,"REV_AT_EPOCH":26414,"BSTAR":0.00025732,"MEAN_MOTION_DOT":3.422e-5,"MEAN_MOTION_DDOT":0},{"OBJECT_NAME":"AURA","OBJECT_ID":"2004-026A","EPOCH":"2026-04-26T20:04:36.935040","MEAN_MOTION":14.6124695,"ECCENTRICITY":0.0001697,"INCLINATION":98.3382,"RA_OF_ASC_NODE":72.8797,"ARG_OF_PERICENTER":84.8838,"MEAN_ANOMALY":275.2556,"EPHEMERIS_TYPE":0,"CLASSIFICATION_TYPE":"U","NORAD_CAT_ID":28376,"ELEMENT_SET_NO":999,"REV_AT_EPOCH":15871,"BSTAR":0.00017745,"MEAN_MOTION_DOT":8.27e-6,"MEAN_MOTION_DDOT":0},{"OBJECT_NAME":"SWIFT","OBJECT_ID":"2004-047A","EPOCH":"2026-04-26T14:02:47.411808","MEAN_MOTION":15.63634576,"ECCENTRICITY":0.000168,"INCLINATION":20.5524,"RA_OF_ASC_NODE":221.4796,"ARG_OF_PERICENTER":332.8404,"MEAN_ANOMALY":27.1953,"EPHEMERIS_TYPE":0,"CLASSIFICATION_TYPE":"U","NORAD_CAT_ID":28485,"ELEMENT_SET_NO":999,"REV_AT_EPOCH":17876,"BSTAR":0.0005222,"MEAN_MOTION_DOT":0.0005191,"MEAN_MOTION_DDOT":0},{"OBJECT_NAME":"THEMIS A","OBJECT_ID":"2007-004A","EPOCH":"2026-04-26T06:25:53.696640","MEAN_MOTION":0.87844732,"ECCENTRICITY":0.8382338,"INCLINATION":7.6211,"RA_OF_ASC_NODE":114.2861,"ARG_OF_PERICENTER":189.0135,"MEAN_ANOMALY":126.3344,"EPHEMERIS_TYPE":0,"CLASSIFICATION_TYPE":"U","NORAD_CAT_ID":30580,"ELEMENT_SET_NO":999,"REV_AT_EPOCH":4082,"BSTAR":0.0073005,"MEAN_MOTION_DOT":7.0e-7,"MEAN_MOTION_DDOT":0},{"OBJECT_NAME":"THEMIS D","OBJECT_ID":"2007-004D","EPOCH":"2026-04-24T07:08:22.987392","MEAN_MOTION":0.87834113,"ECCENTRICITY":0.8339467,"INCLINATION":7.1883,"RA_OF_ASC_NODE":82.6457,"ARG_OF_PERICENTER":223.1112,"MEAN_ANOMALY":208.3988,"EPHEMERIS_TYPE":0,"CLASSIFICATION_TYPE":"U","NORAD_CAT_ID":30797,"ELEMENT_SET_NO":999,"REV_AT_EPOCH":4060,"BSTAR":0,"MEAN_MOTION_DOT":-1.7e-7,"MEAN_MOTION_DDOT":0},{"OBJECT_NAME":"THEMIS E","OBJECT_ID":"2007-004E","EPOCH":"2026-04-26T09:05:54.754944","MEAN_MOTION":0.8833202,"ECCENTRICITY":0.84484086,"INCLINATION":5.7263,"RA_OF_ASC_NODE":101.1721,"ARG_OF_PERICENTER":206.2304,"MEAN_ANOMALY":227.4262,"EPHEMERIS_TYPE":0,"CLASSIFICATION_TYPE":"U","NORAD_CAT_ID":30798,"ELEMENT_SET_NO":999,"REV_AT_EPOCH":6546,"BSTAR":0,"MEAN_MOTION_DOT":3.8e-7,"MEAN_MOTION_DDOT":0},{"OBJECT_NAME":"FGRST (GLAST)","OBJECT_ID":"2008-029A","EPOCH":"2026-04-26T13:28:17.820768","MEAN_MOTION":15.23664693,"ECCENTRICITY":0.0008747,"INCLINATION":25.5812,"RA_OF_ASC_NODE":202.8666,"ARG_OF_PERICENTER":78.7975,"MEAN_ANOMALY":281.3546,"EPHEMERIS_TYPE":0,"CLASSIFICATION_TYPE":"U","NORAD_CAT_ID":33053,"ELEMENT_SET_NO":999,"REV_AT_EPOCH":98795,"BSTAR":0.000143,"MEAN_MOTION_DOT":3.868e-5,"MEAN_MOTION_DDOT":0}]
