TDRS 3                  
1 19548U 88091B   26116.48427314 -.00000312  00000+0  00000+0 0  9997
2 19548  12.6414 341.3476 0040984 356.1007   2.5300  1.00275045124867
HST                     
1 20580U 90037B   26116.56359936  .00007841  00000+0  25327-3 0  9997
2 20580  28.4745  73.2359 0001646 293.0717  66.9705 15.30160031780651
TDRS 5                  
1 21639U 91054B   26116.81736310  .00000072  00000+0  00000+0 0  9992
2 21639  14.0783 354.1634 0007927 285.4071  61.7814  1.00271012127195
TDRS 6                  
1 22314U 93003B   26116.10201199 -.00000307  00000+0  00000+0 0  9995
2 22314  14.1825 357.4471 0005954 179.2648  28.3635  1.00273792121884
TDRS 7                  
1 23613U 95035B   26116.87003917 -.00000252  00000+0  00000+0 0  9996
2 23613  13.3990 348.5440 0010905  64.8581 203.7577  1.00278079112736
ISS (ZARYA)             
1 25544U 98067A   26116.65160326  .00008927  00000+0  17009-3 0  9990
2 25544  51.6320 195.1803 0007009 353.7259   6.3640 15.48972814563761
TERRA                   
1 25994U 99068A   26116.88251602  .00000379  00000+0  86257-4 0  9999
2 25994  97.9501 168.4524 0003157  54.7148 122.5190 14.61060954402111
TDRS 8                  
1 26388U 00034A   26116.79595633 -.00000202  00000+0  00000+0 0  9990
2 26388  12.6046  31.7532 0006207 345.5403 208.7140  1.00277000 94662
TIMED                   
1 26998U 01055B   26116.89057727  .00001076  00000+0  10156-3 0  9995
2 26998  74.0684 338.2975 0001735 210.5099 149.5985 14.95169477323152
AQUA                    
1 27424U 02022A   26116.85933236  .00000926  00000+0  19419-3 0  9993
2 27424  98.4244  85.1310 0002042  95.0121 295.2207 14.62075910275776
SORCE                   
1 27651U 03004A   26116.66381266  .00003422  00000+0  25732-3 0  9994
2 27651  39.9900 195.5724 0016409  38.8548 321.3423 15.03425891264145
AURA                    
1 28376U 04026A   26116.83653860  .00000827  00000+0  17745-3 0  9996
2 28376  98.3382  72.8797 0001697  84.8838 275.2556 14.61246950158715
SWIFT                   
1 28485U 04047A   26116.58527097  .00051910  00000+0  52220-3 0  9990
2 28485  20.5524 221.4796 0001680 332.8404  27.1953 15.63634576178769
THEMIS A                
1 30580U 07004A   26116.26798260  .00000070  00000+0  73005-2 0  9996
2 30580   7.6211 114.2861 8382338 189.0135 126.3344  0.87844732 40820
THEMIS D                
1 30797U 07004D   26114.29748828 -.00000017  00000+0  00000+0 0  9996
2 30797   7.1883  82.6457 8339467 223.1112 208.3988  0.87834113 40602
THEMIS E                
1 30798U 07004E   26116.37910596  .00000038  00000+0  00000+0 0  9993
2 30798   5.7263 101.1721 8448408 206.2304 227.4262  0.88332020 65460
FGRST (GLAST)           
1 33053U 08029A   26116.56131737  .00003868  00000+0  14300-3 0  9997
2 33053  25.5812 202.8666 0008747  78.7975 281.3546 15.23664693987950
